ALOUETTE 1 (S-27)       
1 00424U 62049A   09242.88210449  .00000029  00000-0  22872-4 0  2094
2 00424  80.4643 201.3197 0021808 212.8033 147.1762 13.68718813341910
IUE                     
1 10637U 78012A   09239.01264467 -.00000035  00000-0  10000-3 0  5267
2 10637  43.0564  14.3973 1537816 154.5353 213.9620  1.00061641 68168
IRAS                    
1 13777U 83004A   09243.18163774  .00000344  00000-0  26311-3 0  9554
2 13777  99.0645  75.7447 0017860 351.7183   8.3683 14.00086877 28092
AKEBONO (EXOS-D)        
1 19822U 89016A   09242.38447401  .00004257  28318-6  14334-3 0  3172
2 19822  75.0899 217.8735 2694947 223.8021 111.5074 10.00566470602886
INTERCOSMOS 24          
1 20261U 89080A   09242.02908149  .00000166  00000-0  43542-4 0  9812
2 20261  82.5879  51.4558 1215416 170.4549 192.2122 12.53441663908832
COBE                    
1 20322U 89089A   09243.01238503  .00000104  00000-0  92865-4 0  9868
2 20322  98.9925 244.5012 0008020 275.2408  84.7859 14.04373650 13670
HST                     
1 20580U 90037B   09240.53111027  .00000271  00000-0  79586-5 0  4398
2 20580  28.4715 350.1380 0003253 329.5865  30.4590 15.00824818860737
ROSAT                   
1 20638U 90049A   09242.57742311  .00003464  00000-0  47989-4 0  7613
2 20638  52.9942  72.6598 0003085 173.0140 187.0890 15.60196198 71424
CRRES                   
1 20712U 90065A   09241.63300557 -.00000267  00000-0  26737-3 0  9430
2 20712  17.9888  45.4424 7135177 119.0447 328.9150  2.42756748158877
SARA                    
1 21578U 91050E   09243.06480656  .00000072  00000-0  29509-4 0  6211
2 21578  98.2320 212.5062 0002950 328.5868  31.5160 14.50468700955272
UARS                    
1 21701U 91063B   09242.92681499  .00002383  00000-0  37369-4 0  7531
2 21701  56.9724  36.5418 0069991 322.3934  37.2242 15.55779953990850
SAMPEX                  
1 22012U 92038A   09242.90568983  .00001463  00000-0  35332-4 0  9909
2 22012  81.6353 218.3112 0047099  11.7325 348.5020 15.39153959945900
ORBVIEW 1 (MICROLAB)    
1 23547U 95017C   09241.93167097  .00000174  00000-0  54784-4 0   536
2 23547  69.9816  31.8714 0010774 167.8359 192.3027 14.55510046763342
RXTE (XTE)              
1 23757U 95074A   09243.12719430  .00000876  00000-0  15022-4 0  9427
2 23757  22.9838 221.2804 0008444 206.3832 153.6175 15.27332669757248
FAST                    
1 24285U 96049A   09241.91956331  .00000357  00000-0  28194-4 0  8231
2 24285  82.9705  21.5821 1998687  26.9928 342.2218 11.26361080526831
TRACE                   
1 25280U 98020A   09242.74633826  .00000450  00000-0  41989-4 0  2854
2 25280  97.6777  91.0557 0023335   9.7672 350.3998 14.98861421622221
SAFIR 2                 
1 25399U 98043F   09242.74968033  .00000020  00000-0  26556-4 0  4208
2 25399  98.3296 268.5677 0001566   4.6956 355.4230 14.23941417578969
SWAS                    
1 25560U 98071A   09242.90571789  .00000004  00000-0  99347-5 0   347
2 25560  69.9008 179.2986 0007527 142.1999 217.9658 14.86888523581476
ASTRID 2                
1 25568U 98072B   09242.21268811  .00000037  00000-0  23926-4 0  1479
2 25568  82.9468 284.8953 0024439 206.5445 153.4463 13.71990086536815
ORSTED                  
1 25635U 99008B   09242.05078674 -.00000057  00000-0 -59036-5 0  7160
2 25635  96.4477  55.5988 0142450 314.8792  44.0899 14.45825588554413
SUNSAT (SO-35)          
1 25636U 99008C   09242.64246112  .00000002  00000-0  88601-5 0  3973
2 25636  96.4538  48.7468 0148115 346.6961  13.0343 14.43471055553844
WIRE                    
1 25646U 99011A   09242.90553315  .00004462  00000-0  61046-4 0  8942
2 25646  97.2669 149.1523 0006221 195.1709 164.9360 15.57957349586713
ABRIXAS                 
1 25721U 99022A   09242.67883814 -.00000907  00000-0 -26369-4 0  6468
2 25721  48.4462 302.9513 0020395 175.8229 184.2874 15.20259295571796
TERRIERS                
1 25735U 99026A   09242.58926783  .00000096  00000-0  67528-5 0  8002
2 25735  97.2131 112.8872 0007558 143.9044 216.2716 15.23959578570210
FUSE 1                  
1 25791U 99035A   09242.22449626  .00000184  00000-0  11380-5 0  5089
2 25791  24.9853 234.0365 0010086 331.7677  28.2303 14.41798511537092
CXO                     
1 25867U 99040B   09243.16666667 -.00000175  00000-0  10000-3 0  3657
2 25867  65.7661  66.3737 7663648 275.5627 356.7627  0.37805604  5292
CLEMENTINE              
1 25978U 99064B   09241.73421232 -.00000017  00000-0  47399-5 0  7274
2 25978  98.1366 317.6177 0009538 247.5489 112.4676 14.85514288526839
XMM-NEWTON              
1 25989U 99066A   09241.79166667  .00000224  00000-0  10000-3 0  7234
2 25989  59.2966  98.0760 5888442 110.8596 350.3555  0.50128496  6604
TERRA                   
1 25994U 99068A   09243.16631384  .00000001  00000-0  10293-4 0    82
2 25994  98.1955 317.0026 0001377 111.2422 248.8947 14.57116280516074
ACRIMSAT                
1 26033U 99070B   09242.69430226 -.00000018  00000-0  56433-5 0  7486
2 26033  97.9630 122.7572 0028242 324.8682  35.0661 14.60557544516427
IMAGE                   
1 26113U 00017A   09239.07314755  .00000296  00000-0  10000-3 0  8648
2 26113  91.2572 213.2108 7359684 276.1702  12.3353  1.68638961 58025
CLUSTER II-FM6          
1 26410U 00041A   09242.33333333  .00000601  00000-0  00000-0 0  3765
2 26410 115.8168 196.7500 8624871  37.1100 359.2689  0.42036846  4921
CLUSTER II-FM7          
1 26411U 00041B   09242.33333333  .00000603  00000-0  00000-0 0  3904
2 26411 115.8133 196.7612 8621856  37.1664   0.0197  0.42036075  5002
CLUSTER II-FM5          
1 26463U 00045A   09242.29166667  .00000533  00000-0  00000-0 0  3748
2 26463 118.2234 198.9977 8487370  35.4464 359.1728  0.42030584  5508
CLUSTER II-FM8          
1 26464U 00045B   09242.25000000 -.00000051  00000-0  00000+0 0  3692
2 26464 110.1066 188.1849 8594209  31.6284 357.3512  0.42023001  4887
MEGSAT-1                
1 26546U 00057B   09242.37755432  .00000014  00000-0  19823-4 0  7639
2 26546  64.5582 200.5494 0049223 259.7807  99.7747 14.84231461483199
HETE-2                  
1 26561U 00061A   09241.23322251  .00000926  00000-0  10274-4 0  4656
2 26561   1.9573  38.8433 0023363 357.9196   2.5613 14.96073728486061
MUNIN                   
1 26621U 00075C   09242.97899941 -.00000095  00000-0 -73989-4 0  6412
2 26621  95.4050 221.2686 0715852 203.4620 153.2272 13.03736658417459
ODIN                    
1 26702U 01007A   09242.47485999  .00000450  00000-0  45510-4 0  7881
2 26702  97.7080 261.7301 0002960 199.3577 160.7554 14.95771191464566
TIMED                   
1 26998U 01055B   09242.42429618  .00000117  00000-0  18380-4 0  3759
2 26998  74.0722 203.1951 0002425 270.3722  89.7175 14.84089569418537
RHESSI                  
1 27370U 02004A   09241.98980141  .00000160  00000-0  19997-4 0  1281
2 27370  38.0390  71.9735 0014152 129.8903 230.3104 15.02182492414838
INTEGRAL                
1 27540U 02048A   09241.75000000  .00000328  00000-0  10000-3 0  8367
2 27540  86.1419 356.9578 8460287 261.9223 357.2551  0.33409165  4544
FEDSAT                  
1 27598U 02056B   09242.32106382  .00000009  00000-0  20446-4 0  8680
2 27598  98.3713 291.0757 0009580  20.8614 339.2955 14.28014158349824
WEOS                    
1 27599U 02056C   09242.34215310  .00000042  00000-0  33442-4 0  8783
2 27599  98.3929 296.7336 0010588  31.4433 328.7378 14.28568212349957
MICRO LABSAT            
1 27600U 02056D   09242.83881769 -.00000117  00000-0 -29967-4 0  8509
2 27600  98.3861 296.8277 0011393  33.8217 326.3694 14.28864242350107
CORIOLIS                
1 27640U 03001A   09242.07956263 -.00000099  00000-0 -26594-4 0   483
2 27640  98.7519 247.1476 0013822 200.5362 159.5276 14.18347766344132
CHIPSAT                 
1 27643U 03002B   09243.23883394  .00000527  00000-0  46641-4 0  1626
2 27643  94.0247 346.9643 0010445 200.3863 159.6952 14.97287174362199
SORCE                   
1 27651U 03004A   09242.52370795  .00000005  00000-0  16378-4 0  9896
2 27651  39.9966 263.5334 0025628 143.0012 217.2551 14.82200667357324
GALEX                   
1 27783U 03017A   09243.15232200  .00000251  00000-0  30048-4 0  7457
2 27783  28.9978 162.8407 0003916 111.8498 248.2507 14.59761604338747
MOST                    
1 27843U 03031D   09242.19389017 -.00000020  00000-0  10969-4 0  6502
2 27843  98.7192 248.9494 0009241 303.3839  56.6465 14.20118909319681
QUAKESAT                
1 27845U 03031F   09242.61691073  .00000044  00000-0  41240-4 0  6319
2 27845  98.7212 250.1593 0008680 313.4667  46.5788 14.20287489319730
AAU CUBESAT             
1 27846U 03031G   09242.53368767  .00000004  00000-0  22037-4 0  5657
2 27846  98.7072 251.6075 0008660 271.9523  88.0657 14.20991813319901
SCISAT 1                
1 27858U 03036A   09241.89989250  .00000035  00000-0  10399-4 0  8238
2 27858  73.9334  36.8059 0007518  76.1078 284.0929 14.74812420325582
KAISTSAT 4              
1 27945U 03042G   09242.47961051 -.00000049  00000-0 -71856-6 0  7666
2 27945  97.9346 115.6826 0011341 265.8443  94.1445 14.63152401316440
GP-B                    
1 28230U 04014A   09242.27241842  .00000088  00000-0  10610-4 0  5894
2 28230  89.9451 157.4795 0001956  96.0950 264.0513 14.75985533288707
DEMETER                 
1 28368U 04025C   09243.14507854 -.00000030  00000-0  30257-5 0  8850
2 28368  97.9628 306.9591 0001374  95.1042 265.0346 14.70187072276737
DOUBLESTAR (TC-2)       
1 28382U 04029A   09242.13892922  .00000096  00000-0  79467-3 0  1433
2 28382  89.3566 335.1268 7255426 273.6035  23.8263  2.11757637 39204
SWIFT                   
1 28485U 04047A   09242.81370875  .00000797  00000-0  37064-4 0  3764
2 28485  20.5585  47.9815 0014308 259.3101 100.5854 14.92568813260834
SUZAKU (ASTRO-EII)      
1 28773U 05025A   09242.85206272  .00000300  00000-0  17335-4 0   692
2 28773  31.4046 156.1695 0006666 234.2425 125.7601 15.00826235227438
